ONEWEB-0160             
1 48060U 21025U   23281.37227519 -.00000384  00000+0 -10869-2 0  9992
2 48060  87.9044 155.7885 0002743  81.9787 278.1654 13.13466977124543
ONEWEB-0163             
1 48061U 21025V   23281.58599702 -.00000727  00000+0 -20247-2 0  9994
2 48061  87.9050 155.7374 0001412  68.5883 291.5397 13.13471597124697
ONEWEB-0159             
1 48062U 21025W   23281.57542185  .00000194  00000+0  49767-3 0  9992
2 48062  87.8973 155.7309 0001593  86.9415 273.1896 13.13472188124613
ONEWEB-0164             
1 48063U 21025X   23281.40402871  .00000224  00000+0  57878-3 0  9998
2 48063  87.9047 155.7683 0001773  71.7469 288.3853 13.13470469124579
ONEWEB-0167             
1 48064U 21025Y   23281.58705677 -.00000041  00000+0 -14710-3 0  9995
2 48064  87.9049 155.7414 0001487  74.9534 285.1759 13.13466612124580
ONEWEB-0166             
1 48065U 21025Z   23281.38074600 -.00000334  00000+0 -94930-3 0  9996
2 48065  87.9043 155.7759 0001563  82.7865 277.3442 13.13471015124637
ONEWEB-0151             
1 48066U 21025AA  23281.38286571 -.00000293  00000+0 -83682-3 0  9995
2 48066  87.9046 155.7829 0001892  69.0921 291.0410 13.13471030124573
ONEWEB-0170             
1 48067U 21025AB  23281.38922568 -.00000135  00000+0 -40517-3 0  9994
2 48067  87.9048 155.7811 0002345  67.3206 292.8171 13.13466776124538
